start=new Date('2022-01-01T00:00:00.000Z').valueOf();
sats=[{"REV_AT_EPOCH":"4739","MEAN_ANOMALY":"272.7459","PERIOD":"95.592","GP_ID":"192820086","TLE_LINE1":"1 47750U 21017AE  21365.55663683  .00001202  00000-0  99645-4 0  9995","BSTAR":"0.00009964500000","SEMIMAJOR_AXIS":"6925.353","TIME_SYSTEM":"UTC","EPOCH":"2021-12-31T13:21:33.422112","DECAY_DATE":null,"MEAN_MOTION_DOT":"0.00001202","LAUNCH_DATE":"2021-03-04","MEAN_ELEMENT_THEORY":"SGP4","TLE_LINE2":"2 47750  53.0556 226.1736 0003424  87.3922 272.7459 15.06398599 47394","NORAD_CAT_ID":"47750","APOAPSIS":"549.589","OBJECT_NAME":"STARLINK-2164","ELEMENT_SET_NO":"999","OBJECT_ID":"2021-017AE","COUNTRY_CODE":"US","EPHEMERIS_TYPE":"0","RCS_SIZE":"LARGE","ECCENTRICITY":"0.00034240","MEAN_MOTION_DDOT":"0.0000000000000","CLASSIFICATION_TYPE":"U","MEAN_MOTION":"15.06398599","FILE":"3255242","RA_OF_ASC_NODE":"226.1736","PERIAPSIS":"544.847","CENTER_NAME":"EARTH","ARG_OF_PERICENTER":"87.3922","REF_FRAME":"TEME","OBJECT_TYPE":"PAYLOAD","INCLINATION":"53.0556","SITE":"AFETR"},{"TIME_SYSTEM":"UTC","EPOCH":"2021-12-31T02:56:34.018944","MEAN_ANOMALY":"293.7023","REV_AT_EPOCH":"4747","PERIOD":"95.592","SEMIMAJOR_AXIS":"6925.356","TLE_LINE1":"1 47751U 21017AF  21365.12261596  .00002004  00000-0  15341-3 0  9997","GP_ID":"192820324","BSTAR":"0.00015341000000","OBJECT_NAME":"STARLINK-2168","APOAPSIS":"548.658","ELEMENT_SET_NO":"999","COUNTRY_CODE":"US","OBJECT_ID":"2021-017AF","LAUNCH_DATE":"2021-03-04","DECAY_DATE":null,"MEAN_MOTION_DOT":"0.00002004","TLE_LINE2":"2 47751  53.0535 218.1009 0002076  66.4184 293.7023 15.06397676 47470","MEAN_ELEMENT_THEORY":"SGP4","NORAD_CAT_ID":"47751","ECCENTRICITY":"0.00020760","MEAN_MOTION_DDOT":"0.0000000000000","RCS_SIZE":"LARGE","CLASSIFICATION_TYPE":"U","MEAN_MOTION":"15.06397676","FILE":"3255242","EPHEMERIS_TYPE":"0","ARG_OF_PERICENTER":"66.4184","REF_FRAME":"TEME","OBJECT_TYPE":"PAYLOAD","INCLINATION":"53.0535","SITE":"AFETR","RA_OF_ASC_NODE":"218.1009","PERIAPSIS":"545.783","CENTER_NAME":"EARTH"},{"APOAPSIS":"548.626","OBJECT_NAME":"STARLINK-2169","ELEMENT_SET_NO":"999","OBJECT_ID":"2021-017AG","COUNTRY_CODE":"US","MEAN_MOTION_DOT":"0.00001494","DECAY_DATE":null,"LAUNCH_DATE":"2021-03-04","MEAN_ELEMENT_THEORY":"SGP4","TLE_LINE2":"2 47752  53.0547 230.8904 0002028  59.3777 300.7412 15.06397385 47383","NORAD_CAT_ID":"47752","TIME_SYSTEM":"UTC","EPOCH":"2021-12-31T14:53:46.458240","REV_AT_EPOCH":"4738","MEAN_ANOMALY":"300.7412","PERIOD":"95.592","TLE_LINE1":"1 47752U 21017AG  21365.62067660  .00001494  00000-0  11921-3 0  9991","GP_ID":"192819085","BSTAR":"0.00011921000000","SEMIMAJOR_AXIS":"6925.357","ARG_OF_PERICENTER":"59.3777","REF_FRAME":"TEME","OBJECT_TYPE":"PAYLOAD","INCLINATION":"53.0547","SITE":"AFETR","RA_OF_ASC_NODE":"230.8904","PERIAPSIS":"545.817","CENTER_NAME":"EARTH","RCS_SIZE":"MEDIUM","ECCENTRICITY":"0.00020280","MEAN_MOTION_DDOT":"0.0000000000000","CLASSIFICATION_TYPE":"U","MEAN_MOTION":"15.06397385","FILE":"3255242","EPHEMERIS_TYPE":"0"},{"FILE":"3255242","MEAN_MOTION":"15.06407224","CLASSIFICATION_TYPE":"U","ECCENTRICITY":"0.00018930","MEAN_MOTION_DDOT":"0.0000000000000","RCS_SIZE":"LARGE","EPHEMERIS_TYPE":"0","SITE":"AFETR","INCLINATION":"53.0549","OBJECT_TYPE":"PAYLOAD","REF_FRAME":"TEME","ARG_OF_PERICENTER":"62.2844","CENTER_NAME":"EARTH","RA_OF_ASC_NODE":"236.2775","PERIAPSIS":"545.880","EPOCH":"2021-12-31T12:43:04.363104","TIME_SYSTEM":"UTC","SEMIMAJOR_AXIS":"6925.326","GP_ID":"192819335","TLE_LINE1":"1 47753U 21017AH  21365.52991161 -.00004523  00000-0 -28485-3 0  9994","BSTAR":"-0.00028485000000","PERIOD":"95.592","MEAN_ANOMALY":"297.8336","REV_AT_EPOCH":"4729","COUNTRY_CODE":"US","OBJECT_ID":"2021-017AH","ELEMENT_SET_NO":"999","OBJECT_NAME":"STARLINK-2170","APOAPSIS":"548.502","NORAD_CAT_ID":"47753","TLE_LINE2":"2 47753  53.0549 236.2775 0001893  62.2844 297.8336 15.06407224 47294","MEAN_ELEMENT_THEORY":"SGP4","DECAY_DATE":null,"MEAN_MOTION_DOT":"-0.00004523","LAUNCH_DATE":"2021-03-04"},{"EPHEMERIS_TYPE":"0","MEAN_MOTION":"15.06397144","FILE":"3255242","RCS_SIZE":"LARGE","MEAN_MOTION_DDOT":"0.0000000000000","ECCENTRICITY":"0.00021000","CLASSIFICATION_TYPE":"U","CENTER_NAME":"EARTH","RA_OF_ASC_NODE":"237.9078","PERIAPSIS":"545.768","INCLINATION":"53.0545","SITE":"AFETR","REF_FRAME":"TEME","ARG_OF_PERICENTER":"55.7299","OBJECT_TYPE":"PAYLOAD","PERIOD":"95.592","GP_ID":"192819586","TLE_LINE1":"1 47754U 21017AJ  21365.16869428  .00000924  00000-0  80952-4 0  9992","BSTAR":"0.00008095200000","SEMIMAJOR_AXIS":"6925.357","REV_AT_EPOCH":"4720","MEAN_ANOMALY":"304.3889","EPOCH":"2021-12-31T04:02:55.185792","TIME_SYSTEM":"UTC","NORAD_CAT_ID":"47754","DECAY_DATE":null,"LAUNCH_DATE":"2021-03-04","MEAN_MOTION_DOT":"0.00000924","TLE_LINE2":"2 47754  53.0545 237.9078 0002100  55.7299 304.3889 15.06397144 47205","MEAN_ELEMENT_THEORY":"SGP4","ELEMENT_SET_NO":"999","OBJECT_ID":"2021-017AJ","COUNTRY_CODE":"US","APOAPSIS":"548.677","OBJECT_NAME":"STARLINK-2171"},{"RCS_SIZE":"LARGE","ECCENTRICITY":"0.00010480","MEAN_MOTION_DDOT":"0.0000000000000","CLASSIFICATION_TYPE":"U","MEAN_MOTION":"15.26087205","FILE":"3255242","EPHEMERIS_TYPE":"0","REF_FRAME":"TEME","ARG_OF_PERICENTER":"67.8726","OBJECT_TYPE":"PAYLOAD","INCLINATION":"53.0480","SITE":"AFETR","RA_OF_ASC_NODE":"230.4696","PERIAPSIS":"486.805","CENTER_NAME":"EARTH","TIME_SYSTEM":"UTC","EPOCH":"2021-12-31T04:54:51.719328","REV_AT_EPOCH":"4730","MEAN_ANOMALY":"292.2383","PERIOD":"94.359","BSTAR":"0.00976560000000","TLE_LINE1":"1 47755U 21017AK  21365.20476527  .00264090  00000-0  97656-2 0  9995","GP_ID":"192819824","SEMIMAJOR_AXIS":"6865.660","APOAPSIS":"488.244","OBJECT_NAME":"STARLINK-2172","ELEMENT_SET_NO":"999","OBJECT_ID":"2021-017AK","COUNTRY_CODE":"US","MEAN_MOTION_DOT":"0.00264090","DECAY_DATE":null,"LAUNCH_DATE":"2021-03-04","MEAN_ELEMENT_THEORY":"SGP4","TLE_LINE2":"2 47755  53.0480 230.4696 0001048  67.8726 292.2383 15.26087205 47308","NORAD_CAT_ID":"47755"},{"EPHEMERIS_TYPE":"0","MEAN_MOTION":"15.06392604","FILE":"3255242","ECCENTRICITY":"0.00020130","MEAN_MOTION_DDOT":"0.0000000000000","RCS_SIZE":"LARGE","CLASSIFICATION_TYPE":"U","CENTER_NAME":"EARTH","RA_OF_ASC_NODE":"236.1439","PERIAPSIS":"545.842","INCLINATION":"53.0551","SITE":"AFETR","REF_FRAME":"TEME","ARG_OF_PERICENTER":"69.5991","OBJECT_TYPE":"PAYLOAD","PERIOD":"95.593","SEMIMAJOR_AXIS":"6925.371","GP_ID":"192818585","TLE_LINE1":"1 47756U 21017AL  21365.56309191  .00000269  00000-0  36964-4 0  9990","BSTAR":"0.00003696400000","MEAN_ANOMALY":"290.5214","REV_AT_EPOCH":"4730","EPOCH":"2021-12-31T13:30:51.141024","TIME_SYSTEM":"UTC","NORAD_CAT_ID":"47756","DECAY_DATE":null,"LAUNCH_DATE":"2021-03-04","MEAN_MOTION_DOT":"0.00000269","MEAN_ELEMENT_THEORY":"SGP4","TLE_LINE2":"2 47756  53.0551 236.1439 0002013  69.5991 290.5214 15.06392604 47306","ELEMENT_SET_NO":"999","COUNTRY_CODE":"US","OBJECT_ID":"2021-017AL","OBJECT_NAME":"STARLINK-2174","APOAPSIS":"548.630"},{"TIME_SYSTEM":"UTC","EPOCH":"2021-12-31T02:00:50.683680","REV_AT_EPOCH":"4717","MEAN_ANOMALY":"313.6273","PERIOD":"95.593","TLE_LINE1":"1 47757U 21017AM  21365.08391995 -.00001190  00000-0 -61048-4 0  9998","GP_ID":"192818835","BSTAR":"-0.00006104800000","SEMIMAJOR_AXIS":"6925.394","APOAPSIS":"548.585","OBJECT_NAME":"STARLINK-2175","ELEMENT_SET_NO":"999","OBJECT_ID":"2021-017AM","COUNTRY_CODE":"US","MEAN_MOTION_DOT":"-0.00001190","DECAY_DATE":null,"LAUNCH_DATE":"2021-03-04","TLE_LINE2":"2 47757  53.0559 238.2953 0001915  46.4875 313.6273 15.06385262 47173","MEAN_ELEMENT_THEORY":"SGP4","NORAD_CAT_ID":"47757","RCS_SIZE":"MEDIUM","MEAN_MOTION_DDOT":"0.0000000000000","ECCENTRICITY":"0.00019150","CLASSIFICATION_TYPE":"U","MEAN_MOTION":"15.06385262","FILE":"3255242","EPHEMERIS_TYPE":"0","ARG_OF_PERICENTER":"46.4875","REF_FRAME":"TEME","OBJECT_TYPE":"PAYLOAD","INCLINATION":"53.0559","SITE":"AFETR","PERIAPSIS":"545.933","RA_OF_ASC_NODE":"238.2953","CENTER_NAME":"EARTH"},{"MEAN_ANOMALY":"267.2316","REV_AT_EPOCH":"4728","SEMIMAJOR_AXIS":"6883.240","GP_ID":"192820087","TLE_LINE1":"1 47758U 21017AN  21365.27265058  .00228063  00000-0  10076-1 0  9990","BSTAR":"0.01007600000000","PERIOD":"94.722","TIME_SYSTEM":"UTC","EPOCH":"2021-12-31T06:32:37.010112","MEAN_ELEMENT_THEORY":"SGP4","TLE_LINE2":"2 47758  53.0557 235.8993 0001610  92.8863 267.2316 15.20244256 47280","DECAY_DATE":null,"LAUNCH_DATE":"2021-03-04","MEAN_MOTION_DOT":"0.00228063","NORAD_CAT_ID":"47758","APOAPSIS":"506.213","OBJECT_NAME":"STARLINK-2176","COUNTRY_CODE":"US","OBJECT_ID":"2021-017AN","ELEMENT_SET_NO":"999","EPHEMERIS_TYPE":"0","CLASSIFICATION_TYPE":"U","MEAN_MOTION_DDOT":"0.0000000000000","ECCENTRICITY":"0.00016100","RCS_SIZE":"LARGE","FILE":"3255242","MEAN_MOTION":"15.20244256","PERIAPSIS":"503.997","RA_OF_ASC_NODE":"235.8993","CENTER_NAME":"EARTH","OBJECT_TYPE":"PAYLOAD","REF_FRAME":"TEME","ARG_OF_PERICENTER":"92.8863","SITE":"AFETR","INCLINATION":"53.0557"},{"EPHEMERIS_TYPE":"0","RCS_SIZE":"LARGE","MEAN_MOTION_DDOT":"0.0000000000000","ECCENTRICITY":"0.00015090","CLASSIFICATION_TYPE":"U","MEAN_MOTION":"15.65492741","FILE":"3255242","RA_OF_ASC_NODE":"194.6222","PERIAPSIS":"370.805","CENTER_NAME":"EARTH","REF_FRAME":"TEME","ARG_OF_PERICENTER":"29.8851","OBJECT_TYPE":"PAYLOAD","INCLINATION":"53.0521","SITE":"AFETR","REV_AT_EPOCH":"4787","MEAN_ANOMALY":"330.2249","PERIOD":"91.984","TLE_LINE1":"1 47759U 21017AP  21365.53192796  .00165290  00000-0  15928-2 0  9992","BSTAR":"0.00159280000000","GP_ID":"192820325","SEMIMAJOR_AXIS":"6749.959","TIME_SYSTEM":"UTC","EPOCH":"2021-12-31T12:45:58.575744","LAUNCH_DATE":"2021-03-04","DECAY_DATE":null,"MEAN_MOTION_DOT":"0.00165290","TLE_LINE2":"2 47759  53.0521 194.6222 0001509  29.8851 330.2249 15.65492741 47877","MEAN_ELEMENT_THEORY":"SGP4","NORAD_CAT_ID":"47759","OBJECT_NAME":"STARLINK-2177","APOAPSIS":"372.843","ELEMENT_SET_NO":"999","OBJECT_ID":"2021-017AP","COUNTRY_CODE":"US"}];
